{"type": "FeatureCollection", "features": [ {"type": "Feature", "properties": {"norad_id": 34955, "name": "COSMOS 2251 DEB", "group": "cosmos-2251-debris", "lat": -22.710934647001192, "lon": 81.6986105909476, "alt_km": 599.0762376921502, "timestamp": "2025-12-08T15:42:50.191640+00:00", "meta": {"OBJECT_NAME": "COSMOS 2251 DEB", "OBJECT_ID": "1993-036AEJ", "EPOCH": "2025-12-03T01:58:24.293568", "MEAN_MOTION": 15.00189355, "ECCENTRICITY": 0.00783052, "INCLINATION": 74.0373, "RA_OF_ASC_NODE": 266.1437, "ARG_OF_PERICENTER": 338.174, "MEAN_ANOMALY": 21.6115, "EPHEMERIS_TYPE": 0, "CLASSIFICATION_TYPE": "U", "NORAD_CAT_ID": 34955, "ELEMENT_SET_NO": 999, "REV_AT_EPOCH": 89889, "BSTAR": 0.0013091752, "MEAN_MOTION_DOT": 0.00017463, "MEAN_MOTION_DDOT": 0}, "tle": {"line1": "1 34955U 93036AEJ 25337.08222562  .00017463  00000+0  13092-2 0  9991", "line2": "2 34955  74.0373 266.1437 0078305 338.1740  21.6115 15.00189355898895"}}, "geometry": {"type": "Point", "coordinates": [81.6986105909476, -22.710934647001192]}}, {"type": "Feature", "properties": {"norad_id": 34962, "name": "COSMOS 2251 DEB", "group": "cosmos-2251-debris", "lat": 62.79498215070273, "lon": -125.14876308593851, "alt_km": 735.9672125186353, "timestamp": "2025-12-08T15:42:50.191651+00:00", "meta": {"OBJECT_NAME": "COSMOS 2251 DEB", "OBJECT_ID": "1993-036AER", "EPOCH": "2025-12-08T00:27:49.418208", "MEAN_MOTION": 14.46495653, "ECCENTRICITY": 0.0018762, "INCLINATION": 74.0294, "RA_OF_ASC_NODE": 202.1816, "ARG_OF_PERICENTER": 315.4302, "MEAN_ANOMALY": 44.5347, "EPHEMERIS_TYPE": 0, "CLASSIFICATION_TYPE": "U", "NORAD_CAT_ID": 34962, "ELEMENT_SET_NO": 999, "REV_AT_EPOCH": 87510, "BSTAR": 0.00059226068, "MEAN_MOTION_DOT": 2.11e-05, "MEAN_MOTION_DDOT": 0}, "tle": {"line1": "1 34962U 93036AER 25342.01932197  .00002110  00000+0  59226-3 0  9993", "line2": "2 34962  74.0294 202.1816 0018762 315.4302  44.5347 14.46495653875109"}}, "geometry": {"type": "Point", "coordinates": [-125.14876308593851, 62.79498215070273]}}, {"type": "Feature", "properties": {"norad_id": 34963, "name": "COSMOS 2251 DEB", "group": "cosmos-2251-debris", "lat": -70.94103355953699, "lon": -74.43559080473837, "alt_km": 699.6494566066222, "timestamp": "2025-12-08T15:42:50.191662+00:00", "meta": {"OBJECT_NAME": "COSMOS 2251 DEB", "OBJECT_ID": "1993-036AES", "EPOCH": "2025-12-05T13:42:49.417056", "MEAN_MOTION": 14.50965864, "ECCENTRICITY": 0.00426066, "INCLINATION": 74.1725, "RA_OF_ASC_NODE": 56.1172, "ARG_OF_PERICENTER": 253.8382, "MEAN_ANOMALY": 105.8088, "EPHEMERIS_TYPE": 0, "CLASSIFICATION_TYPE": "U", "NORAD_CAT_ID": 34963, "ELEMENT_SET_NO": 999, "REV_AT_EPOCH": 86697, "BSTAR": 0.0025671523, "MEAN_MOTION_DOT": 0.00010254, "MEAN_MOTION_DDOT": 0}, "tle": {"line1": "1 34963U 93036AES 25339.57140529  .00010254  00000+0  25672-2 0  9996", "line2": "2 34963  74.1725  56.1172 0042606 253.8382 105.8088 14.50965864866978"}}, "geometry": {"type": "Point", "coordinates": [-74.43559080473837, -70.94103355953699]}}, {"type": "Feature", "properties": {"norad_id": 34964, "name": "COSMOS 2251 DEB", "group": "cosmos-2251-debris", "lat": -54.80181290598127, "lon": -29.09711121691363, "alt_km": 888.8170541669915, "timestamp": "2025-12-08T15:42:50.191672+00:00", "meta": {"OBJECT_NAME": "COSMOS 2251 DEB", "OBJECT_ID": "1993-036AET", "EPOCH": "2025-12-06T09:08:23.227296", "MEAN_MOTION": 14.00561346, "ECCENTRICITY": 0.02131727, "INCLINATION": 73.9719, "RA_OF_ASC_NODE": 358.9078, "ARG_OF_PERICENTER": 218.6047, "MEAN_ANOMALY": 139.9683, "EPHEMERIS_TYPE": 0, "CLASSIFICATION_TYPE": "U", "NORAD_CAT_ID": 34964, "ELEMENT_SET_NO": 999, "REV_AT_EPOCH": 84389, "BSTAR": 0.0026176283, "MEAN_MOTION_DOT": 4.714e-05, "MEAN_MOTION_DDOT": 0}, "tle": {"line1": "1 34964U 93036AET 25340.38082439  .00004714  00000+0  26176-2 0  9997", "line2": "2 34964  73.9719 358.9078 0213172 218.6047 139.9683 14.00561346843899"}}, "geometry": {"type": "Point", "coordinates": [-29.09711121691363, -54.80181290598127]}}, {"type": "Feature", "properties": {"norad_id": 34965, "name": "COSMOS 2251 DEB", "group": "cosmos-2251-debris", "lat": 21.798431712644877, "lon": 142.68323798319372, "alt_km": 738.4852132662099, "timestamp": "2025-12-08T15:42:50.191683+00:00", "meta": {"OBJECT_NAME": "COSMOS 2251 DEB", "OBJECT_ID": "1993-036AEU", "EPOCH": "2025-12-06T10:34:26.785056", "MEAN_MOTION": 14.48681639, "ECCENTRICITY": 0.00265723, "INCLINATION": 74.0502, "RA_OF_ASC_NODE": 140.2593, "ARG_OF_PERICENTER": 268.4529, "MEAN_ANOMALY": 91.3587, "EPHEMERIS_TYPE": 0, "CLASSIFICATION_TYPE": "U", "NORAD_CAT_ID": 34965, "ELEMENT_SET_NO": 999, "REV_AT_EPOCH": 87022, "BSTAR": 0.00064326633, "MEAN_MOTION_DOT": 2.407e-05, "MEAN_MOTION_DDOT": 0}, "tle": {"line1": "1 34965U 93036AEU 25340.44058779  .00002407  00000+0  64327-3 0  9993", "line2": "2 34965  74.0502 140.2593 0026572 268.4529  91.3587 14.48681639870221"}}, "geometry": {"type": "Point", "coordinates": [142.68323798319372, 21.798431712644877]}}, {"type": "Feature", "properties": {"norad_id": 34967, "name": "COSMOS 2251 DEB", "group": "cosmos-2251-debris", "lat": -1.8293344012698614, "lon": -99.04657052192749, "alt_km": 730.2327165158722, "timestamp": "2025-12-08T15:42:50.191694+00:00", "meta": {"OBJECT_NAME": "COSMOS 2251 DEB", "OBJECT_ID": "1993-036AEW", "EPOCH": "2025-12-08T04:05:07.875456", "MEAN_MOTION": 14.44229363, "ECCENTRICITY": 0.00377895, "INCLINATION": 73.9939, "RA_OF_ASC_NODE": 262.3821, "ARG_OF_PERICENTER": 49.77, "MEAN_ANOMALY": 310.6752, "EPHEMERIS_TYPE": 0, "CLASSIFICATION_TYPE": "U", "NORAD_CAT_ID": 34967, "ELEMENT_SET_NO": 999, "REV_AT_EPOCH": 64891, "BSTAR": 0.0010183361, "MEAN_MOTION_DOT": 3.502e-05, "MEAN_MOTION_DDOT": 0}, "tle": {"line1": "1 34967U 93036AEW 25342.17023004  .00003502  00000+0  10183-2 0  9997", "line2": "2 34967  73.9939 262.3821 0037789  49.7700 310.6752 14.44229363648916"}}, "geometry": {"type": "Point", "coordinates": [-99.04657052192749, -1.8293344012698614]}}, {"type": "Feature", "properties": {"norad_id": 34968, "name": "COSMOS 2251 DEB", "group": "cosmos-2251-debris", "lat": -8.646089610122504, "lon": -107.63839293708895, "alt_km": 643.3831459788407, "timestamp": "2025-12-08T15:42:50.191704+00:00", "meta": {"OBJECT_NAME": "COSMOS 2251 DEB", "OBJECT_ID": "1993-036AEX", "EPOCH": "2025-12-08T00:56:51.838368", "MEAN_MOTION": 14.59392233, "ECCENTRICITY": 0.00863684, "INCLINATION": 74.0389, "RA_OF_ASC_NODE": 256.0282, "ARG_OF_PERICENTER": 17.5095, "MEAN_ANOMALY": 342.9015, "EPHEMERIS_TYPE": 0, "CLASSIFICATION_TYPE": "U", "NORAD_CAT_ID": 34968, "ELEMENT_SET_NO": 999, "REV_AT_EPOCH": 88409, "BSTAR": 0.0003041987, "MEAN_MOTION_DOT": 1.486e-05, "MEAN_MOTION_DDOT": 0}, "tle": {"line1": "1 34968U 93036AEX 25342.03948887  .00001486  00000+0  30420-3 0  9994", "line2": "2 34968  74.0389 256.0282 0086368  17.5095 342.9015 14.59392233884090"}}, "geometry": {"type": "Point", "coordinates": [-107.63839293708895, -8.646089610122504]}}, {"type": "Feature", "properties": {"norad_id": 34969, "name": "COSMOS 2251 DEB", "group": "cosmos-2251-debris", "lat": 55.93229368283418, "lon": -174.47271776604552, "alt_km": 740.469025793911, "timestamp": "2025-12-08T15:42:50.191743+00:00", "meta": {"OBJECT_NAME": "COSMOS 2251 DEB", "OBJECT_ID": "1993-036AEY", "EPOCH": "2025-12-07T20:42:42.766272", "MEAN_MOTION": 14.32243833, "ECCENTRICITY": 0.00739307, "INCLINATION": 74.0146, "RA_OF_ASC_NODE": 32.0545, "ARG_OF_PERICENTER": 166.4071, "MEAN_ANOMALY": 193.9095, "EPHEMERIS_TYPE": 0, "CLASSIFICATION_TYPE": "U", "NORAD_CAT_ID": 34969, "ELEMENT_SET_NO": 999, "REV_AT_EPOCH": 65067, "BSTAR": 0.00046322674, "MEAN_MOTION_DOT": 1.262e-05, "MEAN_MOTION_DDOT": 0}, "tle": {"line1": "1 34969U 93036AEY 25341.86299498  .00001262  00000+0  46323-3 0  9993", "line2": "2 34969  74.0146  32.0545 0073930 166.4071 193.9095 14.32243833650674"}}, "geometry": {"type": "Point", "coordinates": [-174.47271776604552, 55.93229368283418]}}, {"type": "Feature", "properties": {"norad_id": 34971, "name": "COSMOS 2251 DEB", "group": "cosmos-2251-debris", "lat": 65.63746594925959, "lon": 73.39156017588411, "alt_km": 669.2261235268907, "timestamp": "2025-12-08T15:42:50.191754+00:00", "meta": {"OBJECT_NAME": "COSMOS 2251 DEB", "OBJECT_ID": "1993-036AFA", "EPOCH": "2025-12-06T14:16:08.154912", "MEAN_MOTION": 14.55618796, "ECCENTRICITY": 0.00698698, "INCLINATION": 73.978, "RA_OF_ASC_NODE": 296.6954, "ARG_OF_PERICENTER": 163.9786, "MEAN_ANOMALY": 313.6169, "EPHEMERIS_TYPE": 0, "CLASSIFICATION_TYPE": "U", "NORAD_CAT_ID": 34971, "ELEMENT_SET_NO": 999, "REV_AT_EPOCH": 66083, "BSTAR": 0.00032064289, "MEAN_MOTION_DOT": 1.416e-05, "MEAN_MOTION_DDOT": 0}, "tle": {"line1": "1 34971U 93036AFA 25340.59453883  .00001416  00000+0  32064-3 0  9993", "line2": "2 34971  73.9780 296.6954 0069869 163.9786 313.6169 14.55618796660833"}}, "geometry": {"type": "Point", "coordinates": [73.39156017588411, 65.63746594925959]}}, {"type": "Feature", "properties": {"norad_id": 34972, "name": "COSMOS 2251 DEB", "group": "cosmos-2251-debris", "lat": 67.52271524459667, "lon": -166.11277741501235, "alt_km": 653.9882878775816, "timestamp": "2025-12-08T15:42:50.191765+00:00", "meta": {"OBJECT_NAME": "COSMOS 2251 DEB", "OBJECT_ID": "1993-036AFB", "EPOCH": "2025-12-08T07:22:15.896352", "MEAN_MOTION": 14.72758949, "ECCENTRICITY": 0.00340852, "INCLINATION": 73.9884, "RA_OF_ASC_NODE": 58.5162, "ARG_OF_PERICENTER": 218.1015, "MEAN_ANOMALY": 205.9156, "EPHEMERIS_TYPE": 0, "CLASSIFICATION_TYPE": "U", "NORAD_CAT_ID": 34972, "ELEMENT_SET_NO": 999, "REV_AT_EPOCH": 87585, "BSTAR": 0.0018558428, "MEAN_MOTION_DOT": 0.00011952, "MEAN_MOTION_DDOT": 0}, "tle": {"line1": "1 34972U 93036AFB 25342.30712843  .00011952  00000+0  18558-2 0  9996", "line2": "2 34972  73.9884  58.5162 0034085 218.1015 205.9156 14.72758949875858"}}, "geometry": {"type": "Point", "coordinates": [-166.11277741501235, 67.52271524459667]}}]}